[Satellite]
VERSION=1.1
NAME=YAOGAN 13
NICKNAME=YAOGAN 13
TLE1=1 37941U 11072A   15055.39391583  .00007284  00000-0  36020-3 0  9997
TLE2=2 37941  97.4503 343.5527 0001968  90.5316  45.7733 15.18120007179653
